SWARM A                 
1 39452U 13067B   26178.22004157  .00010491  00000+0  17920-3 0  9991
2 39452  87.3322  52.5137 0003143  97.6391 262.5227 15.51139485707809
SWARM C                 
1 39453U 13067C   26178.21993780  .00010334  00000+0  17651-3 0  9997
2 39453  87.3321  51.0948 0003141  97.8869 262.2749 15.51138229707769
BRITE-CA1 (TORONTO)     
1 40020U 14033L   26178.29738759  .00000870  00000+0  13839-3 0  9992
2 40020  97.9749 307.0395 0077360 244.0799 115.2422 14.72691743643709
OCO 2                   
1 40059U 14035A   26178.18121435  .00000387  00000+0  96010-4 0  9997
2 40059  98.2019 119.3220 0001509  83.5344 276.6026 14.57118919637505
BRITE-PL2 (HEWELIUSZ)   
1 40119U 14049B   26178.28155511  .00001731  00000+0  16501-3 0  9992
2 40119  97.9107 290.3598 0015335  77.6712 282.6224 14.94630777642953
MMS 1                   
1 40482U 15011A   26178.33335648 -.00000873  00000+0  00000+0 0  9992
2 40482  72.2565 348.6938 8317879 167.6117 253.6601  0.28362606  1388
MMS 2                   
1 40483U 15011B   26178.33335648 -.00000873  00000+0  00000+0 0  9993
2 40483  72.2614 348.6930 8320719 167.6141 253.6552  0.28361616  1385
MMS 3                   
1 40484U 15011C   26178.33335648 -.00000872  00000+0  00000+0 0  9993
2 40484  72.2602 348.7046 8319059 167.6224 253.6245  0.28362573  1381
MMS 4                   
1 40485U 15011D   26178.33335648 -.00000873  00000+0  00000+0 0  9995
2 40485  72.2564 348.6879 8318961 167.6322 253.6176  0.28362580  1383
ASTROSAT                
1 40930U 15052A   26177.91335745  .00001538  00000+0  10540-3 0  9998
2 40930   5.9973  85.3306 0007890 177.8458 182.1704 14.82522407581271
DAMPE                   
1 41173U 15078A   26178.30036973  .00001713  00000+0  60035-4 0  9991
2 41173  97.4558 183.8173 0013382  45.8402 314.3937 15.30811614586095
PISAT                   
1 41784U 16059B   26177.95262248  .00000903  00000+0  16112-3 0  9991
2 41784  97.8180 177.9858 0029196 171.3443 188.8272 14.68999168521177
HXMT (HUIYAN)           
1 42758U 17034A   26178.26404869  .00004788  00000+0  23605-3 0  9999
2 42758  43.0134 126.9262 0032113 211.1741 148.7203 15.18543083499193
FLYING LAPTOP           
1 42831U 17042G   26178.25063512  .00003025  00000+0  23924-3 0  9992
2 42831  97.4728 333.3983 0019978  89.6560 270.6954 15.01207479487960
ZHANGHENG 1-01 (CSES-1) 
1 43194U 18015C   26178.27123157  .00007942  00000+0  36062-3 0  9999
2 43194  97.6870 344.1300 0017412 228.8816 131.0917 15.20937521466176
SALSAT                  
1 46495U 20068K   26177.95657953  .00008212  00000+0  28601-3 0  9998
2 46495  97.8848 181.6168 0007823 266.2984  93.7361 15.29932421316852
IXPE                    
1 49954U 21121A   26178.33335648  .00011972  00000+0  65281-3 0  9991
2 49954   0.2283 241.1329 0006806 230.9171 321.7396 15.10344512  5140
SMILE                   
1 69123U 26109A   26158.38327019 -.00000041  00000+0 -36778-3 0  9994
2 69123  69.9787 209.3069 3310191 288.5544  45.7342  7.54049028  2480
