OBJECT_NAME,OBJECT_ID,EPOCH,MEAN_MOTION,ECCENTRICITY,INCLINATION,RA_OF_ASC_NODE,ARG_OF_PERICENTER,MEAN_ANOMALY,EPHEMERIS_TYPE,CLASSIFICATION_TYPE,NORAD_CAT_ID,ELEMENT_SET_NO,REV_AT_EPOCH,BSTAR,MEAN_MOTION_DOT,MEAN_MOTION_DDOT
SWARM A,2013-067B,2026-06-27T05:16:51.591648,15.51139485,.00031435,87.3322,52.5137,97.6391,262.5227,0,U,39452,999,70780,.1791968E-3,.10491E-3,0
SWARM C,2013-067C,2026-06-27T05:16:42.625920,15.51138229,.00031418,87.3321,51.0948,97.8869,262.2749,0,U,39453,999,70776,.17650731E-3,.10334E-3,0
BRITE-CA1 (TORONTO),2014-033L,2026-06-27T07:08:14.287776,14.72691743,.00773601,97.9749,307.0395,244.0799,115.2422,0,U,40020,999,64370,.13838691E-3,.87E-5,0
OCO 2,2014-035A,2026-06-27T04:20:56.919840,14.57118919,.00015092,98.2019,119.3220,83.5344,276.6026,0,U,40059,999,63750,.96009732E-4,.387E-5,0
BRITE-PL2 (HEWELIUSZ),2014-049B,2026-06-27T06:45:26.361504,14.94630777,.00153357,97.9107,290.3598,77.6712,282.6224,0,U,40119,999,64295,.16500768E-3,.1731E-4,0
MMS 1,2015-011A,2026-06-27T08:00:01.999872,0.28362606,.83178798,72.2565,348.6938,167.6117,253.6601,0,U,40482,999,138,0,-.873E-5,0
MMS 2,2015-011B,2026-06-27T08:00:01.999872,0.28361616,.83207195,72.2614,348.6930,167.6141,253.6552,0,U,40483,999,138,0,-.873E-5,0
MMS 3,2015-011C,2026-06-27T08:00:01.999872,0.28362573,.8319059,72.2602,348.7046,167.6224,253.6245,0,U,40484,999,138,0,-.872E-5,0
MMS 4,2015-011D,2026-06-27T08:00:01.999872,0.28362580,.83189612,72.2564,348.6879,167.6322,253.6176,0,U,40485,999,138,0,-.873E-5,0
ASTROSAT,2015-052A,2026-06-26T21:55:14.083680,14.82522407,.000789,5.9973,85.3306,177.8458,182.1704,0,U,40930,999,58127,.1054E-3,.1538E-4,0
DAMPE,2015-078A,2026-06-27T07:12:31.944672,15.30811614,.00133824,97.4558,183.8173,45.8402,314.3937,0,U,41173,999,58609,.60034944E-4,.1713E-4,0
PISAT,2016-059B,2026-06-26T22:51:46.582272,14.68999168,.0029196,97.8180,177.9858,171.3443,188.8272,0,U,41784,999,52117,.16112E-3,.903E-5,0
HXMT (HUIYAN),2017-034A,2026-06-27T06:20:13.806816,15.18543083,.00321139,43.0134,126.9262,211.1741,148.7203,0,U,42758,999,49919,.23605451E-3,.4788E-4,0
FLYING LAPTOP,2017-042G,2026-06-27T06:00:54.874368,15.01207479,.00199782,97.4728,333.3983,89.6560,270.6954,0,U,42831,999,48796,.23923815E-3,.3025E-4,0
ZHANGHENG 1-01 (CSES-1),2018-015C,2026-06-27T06:30:34.407648,15.20937521,.0017412,97.6870,344.1300,228.8816,131.0917,0,U,43194,999,46617,.36062074E-3,.7942E-4,0
SALSAT,2020-068K,2026-06-26T22:57:28.471392,15.29932421,.0007823,97.8848,181.6168,266.2984,93.7361,0,U,46495,999,31685,.28601E-3,.8212E-4,0
IXPE,2021-121A,2026-06-27T08:00:01.999872,15.10344512,.00068066,0.2283,241.1329,230.9171,321.7396,0,U,49954,999,514,.65281046E-3,.11972E-3,0
SMILE,2026-109A,2026-06-07T09:11:54.544416,7.54049028,.3310191,69.9787,209.3069,288.5544,45.7342,0,U,69123,999,248,-.36778157E-3,-.41E-6,0
